{
  "type": "FeatureCollection",
  "features": [
    {
      "type": "Feature",
      "properties": {
        "norad_id": 33412,
        "name": "COSMO-SKYMED 3",
        "group": "resource",
        "lat": -82.14891688801585,
        "lon": -58.78026926038388,
        "alt_km": 567.169370329033,
        "timestamp": "2025-12-27T11:23:19.534077+00:00",
        "meta_object_name": "COSMO-SKYMED 3",
        "meta_object_id": "2008-054A",
        "meta_epoch": "2025-12-27T03:48:46.393056",
        "meta_mean_motion": 15.05477361,
        "meta_eccentricity": 0.0017092,
        "meta_inclination": 97.8448,
        "meta_ra_of_asc_node": 211.7945,
        "meta_arg_of_pericenter": 125.4907,
        "meta_mean_anomaly": 234.7917,
        "meta_ephemeris_type": 0,
        "meta_classification_type": "U",
        "meta_norad_cat_id": 33412,
        "meta_element_set_no": 999,
        "meta_rev_at_epoch": 93104,
        "meta_bstar": 0.00026569,
        "meta_mean_motion_dot": 3.765e-05,
        "meta_mean_motion_ddot": 0,
        "tle_line1": "1 33412U 08054A   25361.15887029  .00003765  00000+0  26569-3 0  9998",
        "tle_line2": "2 33412  97.8448 211.7945 0017092 125.4907 234.7917 15.05477361931040"
      },
      "geometry": {
        "type": "Point",
        "coordinates": [
          -58.78026926038388,
          -82.14891688801585
        ]
      }
    },
    {
      "type": "Feature",
      "properties": {
        "norad_id": 33446,
        "name": "YAOGAN-4",
        "group": "resource",
        "lat": 51.20269123996567,
        "lon": 121.40206882995754,
        "alt_km": 623.2578093740995,
        "timestamp": "2025-12-27T11:23:19.534093+00:00",
        "meta_object_name": "YAOGAN-4",
        "meta_object_id": "2008-061A",
        "meta_epoch": "2025-12-27T01:05:39.962688",
        "meta_mean_motion": 14.82725311,
        "meta_eccentricity": 0.001296,
        "meta_inclination": 97.9199,
        "meta_ra_of_asc_node": 291.0058,
        "meta_arg_of_pericenter": 272.4359,
        "meta_mean_anomaly": 87.537,
        "meta_ephemeris_type": 0,
        "meta_classification_type": "U",
        "meta_norad_cat_id": 33446,
        "meta_element_set_no": 999,
        "meta_rev_at_epoch": 92015,
        "meta_bstar": 0.00021581,
        "meta_mean_motion_dot": 1.691e-05,
        "meta_mean_motion_ddot": 0,
        "tle_line1": "1 33446U 08061A   25361.04560142  .00001691  00000+0  21581-3 0  9990",
        "tle_line2": "2 33446  97.9199 291.0058 0012960 272.4359  87.5370 14.82725311920152"
      },
      "geometry": {
        "type": "Point",
        "coordinates": [
          121.40206882995754,
          51.20269123996567
        ]
      }
    },
    {
      "type": "Feature",
      "properties": {
        "norad_id": 33492,
        "name": "GOSAT (IBUKI)",
        "group": "resource",
        "lat": 79.07973273978004,
        "lon": -22.732220563053747,
        "alt_km": 660.7986193282259,
        "timestamp": "2025-12-27T11:23:19.534105+00:00",
        "meta_object_name": "GOSAT (IBUKI)",
        "meta_object_id": "2009-002A",
        "meta_epoch": "2025-12-27T04:24:05.092992",
        "meta_mean_motion": 14.67553436,
        "meta_eccentricity": 0.0001051,
        "meta_inclination": 98.0771,
        "meta_ra_of_asc_node": 109.5861,
        "meta_arg_of_pericenter": 106.222,
        "meta_mean_anomaly": 253.9101,
        "meta_ephemeris_type": 0,
        "meta_classification_type": "U",
        "meta_norad_cat_id": 33492,
        "meta_element_set_no": 999,
        "meta_rev_at_epoch": 90623,
        "meta_bstar": 0.0001916,
        "meta_mean_motion_dot": 1.039e-05,
        "meta_mean_motion_ddot": 0,
        "tle_line1": "1 33492U 09002A   25361.18339228  .00001039  00000+0  19160-3 0  9997",
        "tle_line2": "2 33492  98.0771 109.5861 0001051 106.2220 253.9101 14.67553436906230"
      },
      "geometry": {
        "type": "Point",
        "coordinates": [
          -22.732220563053747,
          79.07973273978004
        ]
      }
    },
    {
      "type": "Feature",
      "properties": {
        "norad_id": 35681,
        "name": "DEIMOS-1",
        "group": "resource",
        "lat": -27.556461207730283,
        "lon": -22.664182327727623,
        "alt_km": 652.509205250869,
        "timestamp": "2025-12-27T11:23:19.534116+00:00",
        "meta_object_name": "DEIMOS-1",
        "meta_object_id": "2009-041A",
        "meta_epoch": "2025-12-27T03:56:14.999136",
        "meta_mean_motion": 14.74975927,
        "meta_eccentricity": 0.0002397,
        "meta_inclination": 97.7159,
        "meta_ra_of_asc_node": 161.0968,
        "meta_arg_of_pericenter": 57.7741,
        "meta_mean_anomaly": 302.3701,
        "meta_ephemeris_type": 0,
        "meta_classification_type": "U",
        "meta_norad_cat_id": 35681,
        "meta_element_set_no": 999,
        "meta_rev_at_epoch": 88152,
        "meta_bstar": 0.00018773,
        "meta_mean_motion_dot": 1.215e-05,
        "meta_mean_motion_ddot": 0,
        "tle_line1": "1 35681U 09041A   25361.16406249  .00001215  00000+0  18773-3 0  9993",
        "tle_line2": "2 35681  97.7159 161.0968 0002397  57.7741 302.3701 14.74975927881521"
      },
      "geometry": {
        "type": "Point",
        "coordinates": [
          -22.664182327727623,
          -27.556461207730283
        ]
      }
    },
    {
      "type": "Feature",
      "properties": {
        "norad_id": 35682,
        "name": "DUBAISAT-1",
        "group": "resource",
        "lat": 54.3164120501453,
        "lon": -36.79738812538969,
        "alt_km": 645.8764309041899,
        "timestamp": "2025-12-27T11:23:19.534127+00:00",
        "meta_object_name": "DUBAISAT-1",
        "meta_object_id": "2009-041B",
        "meta_epoch": "2025-12-27T02:40:52.809312",
        "meta_mean_motion": 14.74644453,
        "meta_eccentricity": 0.0009265,
        "meta_inclination": 97.98,
        "meta_ra_of_asc_node": 131.5808,
        "meta_arg_of_pericenter": 262.6339,
        "meta_mean_anomaly": 97.3816,
        "meta_ephemeris_type": 0,
        "meta_classification_type": "U",
        "meta_norad_cat_id": 35682,
        "meta_element_set_no": 999,
        "meta_rev_at_epoch": 87973,
        "meta_bstar": 0.00024705,
        "meta_mean_motion_dot": 1.599e-05,
        "meta_mean_motion_ddot": 0,
        "tle_line1": "1 35682U 09041B   25361.11172233  .00001599  00000+0  24705-3 0  9999",
        "tle_line2": "2 35682  97.9800 131.5808 0009265 262.6339  97.3816 14.74644453879738"
      },
      "geometry": {
        "type": "Point",
        "coordinates": [
          -36.79738812538969,
          54.3164120501453
        ]
      }
    },
    {
      "type": "Feature",
      "properties": {
        "norad_id": 35931,
        "name": "OCEANSAT-2",
        "group": "resource",
        "lat": -68.91573019127232,
        "lon": 22.603965561867152,
        "alt_km": 899.6815416669942,
        "timestamp": "2025-12-27T11:23:19.534138+00:00",
        "meta_object_name": "OCEANSAT-2",
        "meta_object_id": "2009-051A",
        "meta_epoch": "2025-12-27T04:51:41.846688",
        "meta_mean_motion": 13.99623191,
        "meta_eccentricity": 0.0015853,
        "meta_inclination": 98.2218,
        "meta_ra_of_asc_node": 0.3355,
        "meta_arg_of_pericenter": 6.983,
        "meta_mean_anomaly": 353.1555,
        "meta_ephemeris_type": 0,
        "meta_classification_type": "U",
        "meta_norad_cat_id": 35931,
        "meta_element_set_no": 999,
        "meta_rev_at_epoch": 85527,
        "meta_bstar": 6.1634e-05,
        "meta_mean_motion_dot": 5.3e-07,
        "meta_mean_motion_ddot": 0,
        "tle_line1": "1 35931U 09051A   25361.20256767  .00000053  00000+0  61634-4 0  9999",
        "tle_line2": "2 35931  98.2218   0.3355 0015853   6.9830 353.1555 13.99623191855275"
      },
      "geometry": {
        "type": "Point",
        "coordinates": [
          22.603965561867152,
          -68.91573019127232
        ]
      }
    },
    {
      "type": "Feature",
      "properties": {
        "norad_id": 35946,
        "name": "WORLDVIEW-2 (WV-2)",
        "group": "resource",
        "lat": -81.51461914310134,
        "lon": 163.88364510060345,
        "alt_km": 775.1922521754996,
        "timestamp": "2025-12-27T11:23:19.534153+00:00",
        "meta_object_name": "WORLDVIEW-2 (WV-2)",
        "meta_object_id": "2009-055A",
        "meta_epoch": "2025-12-27T03:27:23.602752",
        "meta_mean_motion": 14.37730537,
        "meta_eccentricity": 0.000461,
        "meta_inclination": 98.477,
        "meta_ra_of_asc_node": 72.0306,
        "meta_arg_of_pericenter": 34.8999,
        "meta_mean_anomaly": 325.2489,
        "meta_ephemeris_type": 0,
        "meta_classification_type": "U",
        "meta_norad_cat_id": 35946,
        "meta_element_set_no": 999,
        "meta_rev_at_epoch": 85092,
        "meta_bstar": 8.0683e-05,
        "meta_mean_motion_dot": 1.99e-06,
        "meta_mean_motion_ddot": 0,
        "tle_line1": "1 35946U 09055A   25361.14402318  .00000199  00000+0  80683-4 0  9993",
        "tle_line2": "2 35946  98.4770  72.0306 0004610  34.8999 325.2489 14.37730537850922"
      },
      "geometry": {
        "type": "Point",
        "coordinates": [
          163.88364510060345,
          -81.51461914310134
        ]
      }
    }
  ]
}